CCSDS_OMM_VERS = 2.0
CREATION_DATE  = 
ORIGINATOR     = 

OBJECT_NAME    = CZ-2C R/B
OBJECT_ID      = 2022-132E
CENTER_NAME    = EARTH
REF_FRAME      = TEME
TIME_SYSTEM    = UTC
MEAN_ELEMENT_THEORY = SGP/SGP4

EPOCH          = 2026-02-05T13:31:19.478496
MEAN_MOTION    = 15.59079390
ECCENTRICITY   = .0017764
INCLINATION    = 97.2960
RA_OF_ASC_NODE = 38.9794
ARG_OF_PERICENTER = 201.8061
MEAN_ANOMALY   = 158.2441

EPHEMERIS_TYPE = 0
CLASSIFICATION_TYPE = U
NORAD_CAT_ID   = 54039
ELEMENT_SET_NO = 999
REV_AT_EPOCH   = 18536
BSTAR          = .64493E-3
MEAN_MOTION_DOT = .50799E-3
MEAN_MOTION_DDOT = 0

CCSDS_OMM_VERS = 2.0
CREATION_DATE  = 
ORIGINATOR     = 

OBJECT_NAME    = GSLV R/B
OBJECT_ID      = 2022-138AN
CENTER_NAME    = EARTH
REF_FRAME      = TEME
TIME_SYSTEM    = UTC
MEAN_ELEMENT_THEORY = SGP/SGP4

EPOCH          = 2026-02-05T19:52:18.640128
MEAN_MOTION    = 14.96530297
ECCENTRICITY   = .0019325
INCLINATION    = 87.3863
RA_OF_ASC_NODE = 177.0241
ARG_OF_PERICENTER = 267.0927
MEAN_ANOMALY   = 92.8093

EPHEMERIS_TYPE = 0
CLASSIFICATION_TYPE = U
NORAD_CAT_ID   = 54149
ELEMENT_SET_NO = 999
REV_AT_EPOCH   = 17916
BSTAR          = .46963E-3
MEAN_MOTION_DOT = .5384E-4
MEAN_MOTION_DDOT = 0

CCSDS_OMM_VERS = 2.0
CREATION_DATE  = 
ORIGINATOR     = 

OBJECT_NAME    = XRISM
OBJECT_ID      = 2023-137A
CENTER_NAME    = EARTH
REF_FRAME      = TEME
TIME_SYSTEM    = UTC
MEAN_ELEMENT_THEORY = SGP/SGP4

EPOCH          = 2026-02-05T13:00:45.181440
MEAN_MOTION    = 15.11094649
ECCENTRICITY   = .0007999
INCLINATION    = 31.0019
RA_OF_ASC_NODE = 131.5250
ARG_OF_PERICENTER = 77.5176
MEAN_ANOMALY   = 282.6357

EPHEMERIS_TYPE = 0
CLASSIFICATION_TYPE = U
NORAD_CAT_ID   = 57800
ELEMENT_SET_NO = 999
REV_AT_EPOCH   = 13292
BSTAR          = .55989E-3
MEAN_MOTION_DOT = .9716E-4
MEAN_MOTION_DDOT = 0

CCSDS_OMM_VERS = 2.0
CREATION_DATE  = 
ORIGINATOR     = 

OBJECT_NAME    = ACS3
OBJECT_ID      = 2024-077B
CENTER_NAME    = EARTH
REF_FRAME      = TEME
TIME_SYSTEM    = UTC
MEAN_ELEMENT_THEORY = SGP/SGP4

EPOCH          = 2026-02-05T19:12:09.662976
MEAN_MOTION    = 13.88284922
ECCENTRICITY   = .0045467
INCLINATION    = 97.2249
RA_OF_ASC_NODE = 345.0804
ARG_OF_PERICENTER = 177.8713
MEAN_ANOMALY   = 182.2651

EPHEMERIS_TYPE = 0
CLASSIFICATION_TYPE = U
NORAD_CAT_ID   = 59588
ELEMENT_SET_NO = 999
REV_AT_EPOCH   = 8977
BSTAR          = .19526E-1
MEAN_MOTION_DOT = .23596E-3
MEAN_MOTION_DDOT = 0

CCSDS_OMM_VERS = 2.0
CREATION_DATE  = 
ORIGINATOR     = 

OBJECT_NAME    = SZ-21 MODULE
OBJECT_ID      = 2025-246C
CENTER_NAME    = EARTH
REF_FRAME      = TEME
TIME_SYSTEM    = UTC
MEAN_ELEMENT_THEORY = SGP/SGP4

EPOCH          = 2026-02-05T09:13:51.577536
MEAN_MOTION    = 15.66107693
ECCENTRICITY   = .00030808
INCLINATION    = 41.4761
RA_OF_ASC_NODE = 41.8476
ARG_OF_PERICENTER = 276.8900
MEAN_ANOMALY   = 83.1590

EPHEMERIS_TYPE = 0
CLASSIFICATION_TYPE = U
NORAD_CAT_ID   = 66515
ELEMENT_SET_NO = 999
REV_AT_EPOCH   = 1300
BSTAR          = .42094529E-3
MEAN_MOTION_DOT = .44396E-3
MEAN_MOTION_DDOT = 0

