CZ-2C R/B               
1 54039U 22132E   26036.56341989  .00050799  00000+0  64493-3 0  9991
2 54039  97.2960  38.9794 0017764 201.8061 158.2441 15.59079390185365
GSLV R/B                
1 54149U 22138AN  26036.82799352  .00005384  00000+0  46963-3 0  9991
2 54149  87.3863 177.0241 0019325 267.0927  92.8093 14.96530297179166
XRISM                   
1 57800U 23137A   26036.54218960  .00009716  00000+0  55989-3 0  9999
2 57800  31.0019 131.5250 0007999  77.5176 282.6357 15.11094649132920
ACS3                    
1 59588U 24077B   26036.80011184  .00023596  00000+0  19526-1 0  9993
2 59588  97.2249 345.0804 0045467 177.8713 182.2651 13.88284922 89777
SZ-21 MODULE            
1 66515U 25246C   26036.38462474  .00044396  00000+0  42095-3 0  9995
2 66515  41.4761  41.8476 0003080 276.8900  83.1590 15.66107693 13005
